{
  "norad_id": 65421,
  "name": "STARLINK-35146",
  "history": [
    {
      "epoch": "2026-05-04T18:40:32.217888Z",
      "apogee_km": 475.88868230555,
      "perigee_km": 474.5385722319779,
      "latitude_deg": 2.8256331648026585e-05,
      "longitude_deg": -171.11522583029114,
      "height_km": 475.95996164521074,
      "semi_major_axis_km": 6853.350627268764,
      "eccentricity": 9.85e-05,
      "inclination_deg": 53.16,
      "raan_deg": 331.6816,
      "arg_perigee_deg": 76.9735,
      "mean_anomaly_deg": 283.1376,
      "mean_motion_rev_day": 15.30200483
    },
    {
      "epoch": "2026-05-05T18:11:20.111424Z",
      "apogee_km": 475.8668330292221,
      "perigee_km": 474.43860745152415,
      "latitude_deg": 2.8069839544682592e-05,
      "longitude_deg": -169.33214315675866,
      "height_km": 476.1645812561384,
      "semi_major_axis_km": 6853.289720240373,
      "eccentricity": 0.0001042,
      "inclination_deg": 53.1603,
      "raan_deg": 327.1299,
      "arg_perigee_deg": 99.1392,
      "mean_anomaly_deg": 260.9727,
      "mean_motion_rev_day": 15.30220882
    }
  ]
}